{
  "type": "FeatureCollection",
  "features": [
    {
      "type": "Feature",
      "properties": {
        "norad_id": 29904,
        "name": "FENGYUN 1C DEB",
        "group": "fengyun-1c-debris",
        "lat": 77.87334783243638,
        "lon": -111.56304068604045,
        "alt_km": 826.209076398487,
        "timestamp": "2025-12-08T23:34:04.241537+00:00",
        "meta_object_name": "FENGYUN 1C DEB",
        "meta_object_id": "1999-025HA",
        "meta_epoch": "2025-12-08T13:08:38.537664",
        "meta_mean_motion": 14.44455583,
        "meta_eccentricity": 0.02080021,
        "meta_inclination": 99.0417,
        "meta_ra_of_asc_node": 20.1515,
        "meta_arg_of_pericenter": 331.1662,
        "meta_mean_anomaly": 27.8157,
        "meta_ephemeris_type": 0,
        "meta_classification_type": "U",
        "meta_norad_cat_id": 29904,
        "meta_element_set_no": 999,
        "meta_rev_at_epoch": 99003,
        "meta_bstar": 0.00072533661,
        "meta_mean_motion_dot": 3.201e-05,
        "meta_mean_motion_ddot": 0,
        "tle_line1": "1 29904U 99025HA  25342.54766826  .00003201  00000+0  72534-3 0  9998",
        "tle_line2": "2 29904  99.0417  20.1515 0208002 331.1662  27.8157 14.44455583990038"
      },
      "geometry": {
        "type": "Point",
        "coordinates": [
          -111.56304068604045,
          77.87334783243638
        ]
      }
    },
    {
      "type": "Feature",
      "properties": {
        "norad_id": 29906,
        "name": "FENGYUN 1C DEB",
        "group": "fengyun-1c-debris",
        "lat": -57.154423997892,
        "lon": 99.93683945314045,
        "alt_km": 755.0358765062219,
        "timestamp": "2025-12-08T23:34:04.241547+00:00",
        "meta_object_name": "FENGYUN 1C DEB",
        "meta_object_id": "1999-025HC",
        "meta_epoch": "2025-12-08T05:36:51.181344",
        "meta_mean_motion": 14.49505798,
        "meta_eccentricity": 0.00373414,
        "meta_inclination": 98.7061,
        "meta_ra_of_asc_node": 85.4345,
        "meta_arg_of_pericenter": 162.4477,
        "meta_mean_anomaly": 197.8015,
        "meta_ephemeris_type": 0,
        "meta_classification_type": "U",
        "meta_norad_cat_id": 29906,
        "meta_element_set_no": 999,
        "meta_rev_at_epoch": 98092,
        "meta_bstar": 0.0032988034,
        "meta_mean_motion_dot": 0.00012729,
        "meta_mean_motion_ddot": 0,
        "tle_line1": "1 29906U 99025HC  25342.23392571  .00012729  00000+0  32988-2 0  9991",
        "tle_line2": "2 29906  98.7061  85.4345 0037341 162.4477 197.8015 14.49505798980928"
      },
      "geometry": {
        "type": "Point",
        "coordinates": [
          99.93683945314045,
          -57.154423997892
        ]
      }
    },
    {
      "type": "Feature",
      "properties": {
        "norad_id": 29907,
        "name": "FENGYUN 1C DEB",
        "group": "fengyun-1c-debris",
        "lat": -58.73257506377095,
        "lon": -145.72625133300818,
        "alt_km": 804.1663468976349,
        "timestamp": "2025-12-08T23:34:04.241558+00:00",
        "meta_object_name": "FENGYUN 1C DEB",
        "meta_object_id": "1999-025HD",
        "meta_epoch": "2025-12-08T03:58:34.876416",
        "meta_mean_motion": 14.11594197,
        "meta_eccentricity": 0.00835428,
        "meta_inclination": 99.1116,
        "meta_ra_of_asc_node": 48.7697,
        "meta_arg_of_pericenter": 262.3005,
        "meta_mean_anomaly": 151.9218,
        "meta_ephemeris_type": 0,
        "meta_classification_type": "U",
        "meta_norad_cat_id": 29907,
        "meta_element_set_no": 999,
        "meta_rev_at_epoch": 96534,
        "meta_bstar": 0.0019681416,
        "meta_mean_motion_dot": 3.65e-05,
        "meta_mean_motion_ddot": 0,
        "tle_line1": "1 29907U 99025HD  25342.16568144  .00003650  00000+0  19681-2 0  9993",
        "tle_line2": "2 29907  99.1116  48.7697 0083542 262.3005 151.9218 14.11594197965343"
      },
      "geometry": {
        "type": "Point",
        "coordinates": [
          -145.72625133300818,
          -58.73257506377095
        ]
      }
    },
    {
      "type": "Feature",
      "properties": {
        "norad_id": 29909,
        "name": "FENGYUN 1C DEB",
        "group": "fengyun-1c-debris",
        "lat": -56.10092658534647,
        "lon": 99.73095003804714,
        "alt_km": 713.5584594795637,
        "timestamp": "2025-12-08T23:34:04.241568+00:00",
        "meta_object_name": "FENGYUN 1C DEB",
        "meta_object_id": "1999-025HF",
        "meta_epoch": "2025-12-08T05:57:06.520032",
        "meta_mean_motion": 14.55001383,
        "meta_eccentricity": 0.0038413,
        "meta_inclination": 98.6353,
        "meta_ra_of_asc_node": 85.902,
        "meta_arg_of_pericenter": 29.5662,
        "meta_mean_anomaly": 31.3673,
        "meta_ephemeris_type": 0,
        "meta_classification_type": "U",
        "meta_norad_cat_id": 29909,
        "meta_element_set_no": 999,
        "meta_rev_at_epoch": 98340,
        "meta_bstar": 0.0026224818,
        "meta_mean_motion_dot": 0.00011373,
        "meta_mean_motion_ddot": 0,
        "tle_line1": "1 29909U 99025HF  25342.24799213  .00011373  00000+0  26225-2 0  9990",
        "tle_line2": "2 29909  98.6353  85.9020 0038413  29.5662  31.3673 14.55001383983405"
      },
      "geometry": {
        "type": "Point",
        "coordinates": [
          99.73095003804714,
          -56.10092658534647
        ]
      }
    },
    {
      "type": "Feature",
      "properties": {
        "norad_id": 29911,
        "name": "FENGYUN 1C DEB",
        "group": "fengyun-1c-debris",
        "lat": -38.17367993138245,
        "lon": -160.76803053689912,
        "alt_km": 824.9477579473878,
        "timestamp": "2025-12-08T23:34:04.241579+00:00",
        "meta_object_name": "FENGYUN 1C DEB",
        "meta_object_id": "1999-025HH",
        "meta_epoch": "2025-12-08T14:47:28.785696",
        "meta_mean_motion": 14.18836982,
        "meta_eccentricity": 0.00273612,
        "meta_inclination": 98.7155,
        "meta_ra_of_asc_node": 25.7991,
        "meta_arg_of_pericenter": 162.4026,
        "meta_mean_anomaly": 349.122,
        "meta_ephemeris_type": 0,
        "meta_classification_type": "U",
        "meta_norad_cat_id": 29911,
        "meta_element_set_no": 999,
        "meta_rev_at_epoch": 97372,
        "meta_bstar": 0.0012229474,
        "meta_mean_motion_dot": 2.511e-05,
        "meta_mean_motion_ddot": 0,
        "tle_line1": "1 29911U 99025HH  25342.61630539  .00002511  00000+0  12229-2 0  9992",
        "tle_line2": "2 29911  98.7155  25.7991 0027361 162.4026 349.1220 14.18836982973721"
      },
      "geometry": {
        "type": "Point",
        "coordinates": [
          -160.76803053689912,
          -38.17367993138245
        ]
      }
    },
    {
      "type": "Feature",
      "properties": {
        "norad_id": 29912,
        "name": "FENGYUN 1C DEB",
        "group": "fengyun-1c-debris",
        "lat": -30.090334861994975,
        "lon": -104.77943283228187,
        "alt_km": 726.1339480326005,
        "timestamp": "2025-12-08T23:34:04.241590+00:00",
        "meta_object_name": "FENGYUN 1C DEB",
        "meta_object_id": "1999-025HJ",
        "meta_epoch": "2025-12-08T06:12:15.569856",
        "meta_mean_motion": 14.42877357,
        "meta_eccentricity": 0.00427149,
        "meta_inclination": 98.7386,
        "meta_ra_of_asc_node": 79.5925,
        "meta_arg_of_pericenter": 231.8377,
        "meta_mean_anomaly": 182.8253,
        "meta_ephemeris_type": 0,
        "meta_classification_type": "U",
        "meta_norad_cat_id": 29912,
        "meta_element_set_no": 999,
        "meta_rev_at_epoch": 97974,
        "meta_bstar": 0.0029418518,
        "meta_mean_motion_dot": 9.901e-05,
        "meta_mean_motion_ddot": 0,
        "tle_line1": "1 29912U 99025HJ  25342.25851354  .00009901  00000+0  29419-2 0  9992",
        "tle_line2": "2 29912  98.7386  79.5925 0042714 231.8377 182.8253 14.42877357979745"
      },
      "geometry": {
        "type": "Point",
        "coordinates": [
          -104.77943283228187,
          -30.090334861994975
        ]
      }
    },
    {
      "type": "Feature",
      "properties": {
        "norad_id": 29913,
        "name": "FENGYUN 1C DEB",
        "group": "fengyun-1c-debris",
        "lat": 77.41528663749402,
        "lon": -61.9212261833451,
        "alt_km": 902.848912556241,
        "timestamp": "2025-12-08T23:34:04.241600+00:00",
        "meta_object_name": "FENGYUN 1C DEB",
        "meta_object_id": "1999-025HK",
        "meta_epoch": "2025-12-08T11:57:45.019008",
        "meta_mean_motion": 14.07375435,
        "meta_eccentricity": 0.00619338,
        "meta_inclination": 98.7875,
        "meta_ra_of_asc_node": 341.4668,
        "meta_arg_of_pericenter": 283.6477,
        "meta_mean_anomaly": 228.4707,
        "meta_ephemeris_type": 0,
        "meta_classification_type": "U",
        "meta_norad_cat_id": 29913,
        "meta_element_set_no": 999,
        "meta_rev_at_epoch": 96905,
        "meta_bstar": 0.00051549775,
        "meta_mean_motion_dot": 8.38e-06,
        "meta_mean_motion_ddot": 0,
        "tle_line1": "1 29913U 99025HK  25342.49843772  .00000838  00000+0  51550-3 0  9996",
        "tle_line2": "2 29913  98.7875 341.4668 0061933 283.6477 228.4707 14.07375435969059"
      },
      "geometry": {
        "type": "Point",
        "coordinates": [
          -61.9212261833451,
          77.41528663749402
        ]
      }
    }
  ]
}